CCSDS_OMM_VERS = 2.0
CREATION_DATE  = 
ORIGINATOR     = 

OBJECT_NAME    = 1998-067XU
OBJECT_ID      = 1998-067XU
CENTER_NAME    = EARTH
REF_FRAME      = TEME
TIME_SYSTEM    = UTC
MEAN_ELEMENT_THEORY = SGP/SGP4

EPOCH          = 2026-01-28T21:33:57.149568
MEAN_MOTION    = 15.59282752
ECCENTRICITY   = .00028651
INCLINATION    = 51.6282
RA_OF_ASC_NODE = 266.9504
ARG_OF_PERICENTER = 141.6198
MEAN_ANOMALY   = 218.4999

EPHEMERIS_TYPE = 0
CLASSIFICATION_TYPE = U
NORAD_CAT_ID   = 66908
ELEMENT_SET_NO = 999
REV_AT_EPOCH   = 895
BSTAR          = .15217813E-2
MEAN_MOTION_DOT = .123445E-2
MEAN_MOTION_DDOT = 0

CCSDS_OMM_VERS = 2.0
CREATION_DATE  = 
ORIGINATOR     = 

OBJECT_NAME    = SILVERSAT
OBJECT_ID      = 1998-067XV
CENTER_NAME    = EARTH
REF_FRAME      = TEME
TIME_SYSTEM    = UTC
MEAN_ELEMENT_THEORY = SGP/SGP4

EPOCH          = 2026-01-28T21:09:46.226592
MEAN_MOTION    = 15.60375041
ECCENTRICITY   = .00031529
INCLINATION    = 51.6294
RA_OF_ASC_NODE = 266.8401
ARG_OF_PERICENTER = 156.3335
MEAN_ANOMALY   = 203.7804

EPHEMERIS_TYPE = 0
CLASSIFICATION_TYPE = U
NORAD_CAT_ID   = 66909
ELEMENT_SET_NO = 999
REV_AT_EPOCH   = 895
BSTAR          = .16306307E-2
MEAN_MOTION_DOT = .138212E-2
MEAN_MOTION_DDOT = 0

CCSDS_OMM_VERS = 2.0
CREATION_DATE  = 
ORIGINATOR     = 

OBJECT_NAME    = 1998-067XW
OBJECT_ID      = 1998-067XW
CENTER_NAME    = EARTH
REF_FRAME      = TEME
TIME_SYSTEM    = UTC
MEAN_ELEMENT_THEORY = SGP/SGP4

EPOCH          = 2026-01-28T19:47:53.839680
MEAN_MOTION    = 15.59423345
ECCENTRICITY   = .00016205
INCLINATION    = 51.6271
RA_OF_ASC_NODE = 267.2058
ARG_OF_PERICENTER = 137.9841
MEAN_ANOMALY   = 222.1276

EPHEMERIS_TYPE = 0
CLASSIFICATION_TYPE = U
NORAD_CAT_ID   = 66910
ELEMENT_SET_NO = 999
REV_AT_EPOCH   = 894
BSTAR          = .13634516E-2
MEAN_MOTION_DOT = .11096E-2
MEAN_MOTION_DDOT = 0

CCSDS_OMM_VERS = 2.0
CREATION_DATE  = 
ORIGINATOR     = 

OBJECT_NAME    = 1998-067XX
OBJECT_ID      = 1998-067XX
CENTER_NAME    = EARTH
REF_FRAME      = TEME
TIME_SYSTEM    = UTC
MEAN_ELEMENT_THEORY = SGP/SGP4

EPOCH          = 2026-01-28T20:37:51.464352
MEAN_MOTION    = 15.61432474
ECCENTRICITY   = .00024378
INCLINATION    = 51.6268
RA_OF_ASC_NODE = 266.6870
ARG_OF_PERICENTER = 171.6940
MEAN_ANOMALY   = 188.4095

EPHEMERIS_TYPE = 0
CLASSIFICATION_TYPE = U
NORAD_CAT_ID   = 66911
ELEMENT_SET_NO = 999
REV_AT_EPOCH   = 894
BSTAR          = .1581418E-2
MEAN_MOTION_DOT = .139619E-2
MEAN_MOTION_DDOT = 0

CCSDS_OMM_VERS = 2.0
CREATION_DATE  = 
ORIGINATOR     = 

OBJECT_NAME    = 1998-067XY
OBJECT_ID      = 1998-067XY
CENTER_NAME    = EARTH
REF_FRAME      = TEME
TIME_SYSTEM    = UTC
MEAN_ELEMENT_THEORY = SGP/SGP4

EPOCH          = 2026-01-28T20:52:10.826400
MEAN_MOTION    = 15.57097036
ECCENTRICITY   = .00025031
INCLINATION    = 51.6290
RA_OF_ASC_NODE = 267.5085
ARG_OF_PERICENTER = 116.2930
MEAN_ANOMALY   = 243.8319

EPHEMERIS_TYPE = 0
CLASSIFICATION_TYPE = U
NORAD_CAT_ID   = 66912
ELEMENT_SET_NO = 999
REV_AT_EPOCH   = 893
BSTAR          = .11538813E-2
MEAN_MOTION_DOT = .85657E-3
MEAN_MOTION_DDOT = 0

